[
    {
        "icao": "KLAX",
        "fetched_at": "2025-04-23T11:00:58.973642Z",
        "taf": "2025/04/23 06:57\nTAF KLAX 230555Z 2306/2412 23006KT P6SM BKN015 \n     FM230900 23006KT P6SM OVC015 \n     FM231400 23006KT P6SM OVC022 \n     FM231900 26012KT P6SM BKN025 \n     FM240400 26007KT P6SM OVC015 \n     FM240900 VRB03KT P6SM OVC015"
    },
    {
        "icao": "KJFK",
        "fetched_at": "2025-04-23T11:01:00.390483Z",
        "taf": "2025/04/23 09:49\nTAF \n      AMD KJFK 230840Z 2309/2412 35008KT P6SM BKN250 \n     FM231700 VRB05KT P6SM FEW250 \n     FM231900 19011KT P6SM FEW250 \n     FM240200 22005KT P6SM FEW250 \n     FM240400 VRB04KT P6SM FEW250"
    },
    {
        "icao": "KLBF",
        "fetched_at": "2025-04-23T11:01:01.812635Z",
        "taf": "2025/04/23 06:30\nTAF KLBF 230527Z 2306/2406 VRB05KT P6SM SCT100 \n     FM231100 06010KT P6SM SCT200 \n     FM231500 08012G22KT P6SM BKN200 \n     FM231900 10014G22KT P6SM BKN050 OVC100 \n     FM240000 09013KT P6SM -TSRA OVC050CB \n     FM240400 08012KT P6SM -TSRA OVC015CB"
    }
]