[
    {
        "metar_id": 741581522,
        "icaoId": "KLAX",
        "receiptTime": "2025-04-23 16:08:34",
        "obsTime": 1745424120,
        "reportTime": "2025-04-23 16:02:00",
        "temp": 14.4,
        "dewp": 8.9,
        "wdir": 230,
        "wspd": 6,
        "wgst": null,
        "visib": 8,
        "altim": 1015,
        "slp": null,
        "qcField": 4,
        "wxString": null,
        "presTend": null,
        "maxT": null,
        "minT": null,
        "maxT24": null,
        "minT24": null,
        "precip": null,
        "pcp3hr": null,
        "pcp6hr": null,
        "pcp24hr": null,
        "snow": null,
        "vertVis": null,
        "metarType": "SPECI",
        "rawOb": "KLAX 231602Z 23006KT 8SM SCT024 OVC029 14/09 A2997 RMK AO2 T01440089",
        "mostRecent": 1,
        "lat": 33.9382,
        "lon": -118.387,
        "elev": 30,
        "prior": 0,
        "name": "Los Angeles Intl, CA, US",
        "clouds": [
            {
                "cover": "SCT",
                "base": 2400
            },
            {
                "cover": "OVC",
                "base": 2900
            }
        ]
    },
    
    {
        "metar_id": 741591611,
        "icaoId": "KJFK",
        "receiptTime": "2025-04-23 16:39:06",
        "obsTime": 1745425860,
        "reportTime": "2025-04-23 16:31:00",
        "temp": 18.9,
        "dewp": 4.4,
        "wdir": 220,
        "wspd": 6,
        "wgst": null,
        "visib": "10+",
        "altim": 1023.5,
        "slp": null,
        "qcField": 4,
        "wxString": null,
        "presTend": null,
        "maxT": null,
        "minT": null,
        "maxT24": null,
        "minT24": null,
        "precip": null,
        "pcp3hr": null,
        "pcp6hr": null,
        "pcp24hr": null,
        "snow": null,
        "vertVis": null,
        "metarType": "SPECI",
        "rawOb": "KJFK 231631Z 22006KT 10SM BKN250 19/04 A3022 RMK AO2 FU PLUME DSNT SW DRFTG NE T01890044",
        "mostRecent": 1,
        "lat": 40.6392,
        "lon": -73.7639,
        "elev": 3,
        "prior": 0,
        "name": "New York/JF Kennedy Intl, NY, US",
        "clouds": [
            {
                "cover": "BKN",
                "base": 25000
            }
        ]
    },
   
    {
        "metar_id": 741572746,
        "icaoId": "KLBF",
        "receiptTime": "2025-04-23 15:58:04",
        "obsTime": 1745423580,
        "reportTime": "2025-04-23 16:00:00",
        "temp": 13.9,
        "dewp": 3.9,
        "wdir": 70,
        "wspd": 17,
        "wgst": 26,
        "visib": "10+",
        "altim": 1018.7,
        "slp": 1018.1,
        "qcField": 6,
        "wxString": null,
        "presTend": null,
        "maxT": null,
        "minT": null,
        "maxT24": null,
        "minT24": null,
        "precip": null,
        "pcp3hr": null,
        "pcp6hr": null,
        "pcp24hr": null,
        "snow": null,
        "vertVis": null,
        "metarType": "METAR",
        "rawOb": "KLBF 231553Z AUTO 07017G26KT 10SM OVC032 14/04 A3008 RMK AO2 PK WND 08030/1530 SLP181 T01390039",
        "mostRecent": 1,
        "lat": 41.122,
        "lon": -100.669,
        "elev": 843,
        "prior": 1,
        "name": "N Platte/Lee Bird Fld, NE, US",
        "clouds": [
            {
                "cover": "OVC",
                "base": 3200
            }
        ]
    }
]